NORAD_CAT_ID,OBJECT_NAME,OBJECT_TYPE,EPOCH,MEAN_MOTION,ECCENTRICITY,INCLINATION,RA_OF_ASC_NODE,ARG_OF_PERICENTER,MEAN_ANOMALY,BSTAR,MEAN_MOTION_DOT,MEAN_MOTION_DDOT,TLE_LINE0,TLE_LINE1,TLE_LINE2,SEMIMAJOR_AXIS,PERIOD,APOGEE,PERIGEE,DECAYED
51957.0,STARLINK-3694,PAYLOAD,2022-07-06 14:00:01,15.08842869,0.0001809,53.2146,294.0687,53.2224,357.709,-0.00066934,-0.00010926,0.0,0 STARLINK-3694,1 51957U 22025B   22187.58334491 -.00010926  00000-0 -66934-3 0  9996,2 51957  53.2146 294.0687 0001809  53.2224 357.7090 15.08842869  1308,6917.871999999999,95.437,540.988,538.485,0.0
51957.0,STARLINK-3694,PAYLOAD,2022-07-06 22:00:00,15.08859936,0.0001763,53.2146,292.5717,51.7428,10.7784,-0.0017357,-0.00027821,0.0,0 STARLINK-3694,1 51957U 22025B   22187.91667824 -.00027821  00000-0 -17357-2 0  9998,2 51957  53.2146 292.5717 0001763  51.7428  10.7784 15.08859936 19749,6917.819,95.436,540.904,538.465,0.0
51957.0,STARLINK-3694,PAYLOAD,2022-07-07 12:01:54,15.08934055,0.000217,53.2155,289.946,49.5756,310.5425,-0.0010922,-0.00017674,0.0,0 STARLINK-3694,1 51957U 22025B   22188.50132349 -.00017674  00000-0 -10922-2 0  9999,2 51957  53.2155 289.9460 0002170  49.5756 310.5425 15.08934055 19835,6917.593000000003,95.432,540.9590000000002,537.957,0.0
51957.0,STARLINK-3694,PAYLOAD,2022-07-07 22:00:00,15.08853147,0.0001664,53.215,288.082,49.7513,47.6088,-0.0017403,-0.00027888,0.0,0 STARLINK-3694,1 51957U 22025B   22188.91667824 -.00027888  00000-0 -17403-2 0  9994,2 51957  53.2150 288.0820 0001664  49.7513  47.6088 15.08853147 19903,6917.84,95.437,540.856,538.554,0.0
51957.0,STARLINK-3694,PAYLOAD,2022-07-08 06:00:02,15.08850372,0.0001520999999999,53.2151,286.5842,55.6036,53.4348,0.0021639,0.00034328,0.0,0 STARLINK-3694,1 51957U 22025B   22189.25002315  .00034328  00000-0  21639-2 0  9991,2 51957  53.2151 286.5842 0001521  55.6036  53.4348 15.08850372 19955,6917.849,95.437,540.766,538.661,0.0
51957.0,STARLINK-3694,PAYLOAD,2022-07-08 13:28:05,15.08853861,0.0001723,53.2159,285.1882,56.3715,303.7441,0.00011506,1.544e-05,0.0,0 STARLINK-3694,1 51957U 22025B   22189.56117078  .00001544  00000-0  11506-3 0  9995,2 51957  53.2159 285.1882 0001723  56.3715 303.7441 15.08853861 18880,6917.8380000000025,95.437,540.895,538.511,0.0
51957.0,STARLINK-3694,PAYLOAD,2022-07-08 22:00:01,15.08894781,0.0001496,53.2146,283.592,45.7057,86.5946,-0.0031572,-0.0005026,0.0,0 STARLINK-3694,1 51957U 22025B   22189.91668981 -.00050260  00000-0 -31572-2 0  9993,2 51957  53.2146 283.5920 0001496  45.7057  86.5946 15.08894781 20053,6917.7130000000025,95.434,540.613,538.543,0.0
51957.0,STARLINK-3694,PAYLOAD,2022-07-09 14:00:01,15.08821804,0.0001710999999999,53.2147,280.6003,51.7159,103.6641,0.00065644,0.0001017,0.0,0 STARLINK-3694,1 51957U 22025B   22190.58334491  .00010170  00000-0  65644-3 0  9996,2 51957  53.2147 280.6003 0001711  51.7159 103.6641 15.08821804  1300,6917.936,95.439,540.985,538.617,0.0
51957.0,STARLINK-3694,PAYLOAD,2022-07-09 16:00:00,15.08807703,0.000173,53.2147,280.2264,50.0626,198.216,0.0029191,0.00046435,0.0,0 STARLINK-3694,1 51957U 22025B   22190.66667824  .00046435  00000-0  29191-2 0  9993,2 51957  53.2147 280.2264 0001730  50.0626 198.2160 15.08807703 20160,6917.979,95.44,541.0409999999998,538.6469999999998,0.0
51957.0,STARLINK-3694,PAYLOAD,2022-07-09 20:00:01,15.08841934,0.0001673,53.2143,279.4774,50.13,23.9278,-0.00075224,-0.00012241,0.0,0 STARLINK-3694,1 51957U 22025B   22190.83334491 -.00012241  00000-0 -75224-3 0  9992,2 51957  53.2143 279.4774 0001673  50.1300  23.9278 15.08841934  1301,6917.874,95.437,540.8969999999998,538.582,0.0
51957.0,STARLINK-3694,PAYLOAD,2022-07-10 06:00:00,15.08839421,0.0001558,53.2147,277.6058,59.2132,119.3301,0.0010932,0.00017153,0.0,0 STARLINK-3694,1 51957U 22025B   22191.25001157  .00017153  00000-0  10932-2 0  9998,2 51957  53.2147 277.6058 0001558  59.2132 119.3301 15.08839421 20255,6917.882,95.438,540.825,538.669,0.0
51957.0,STARLINK-3694,PAYLOAD,2022-07-10 14:00:01,15.08846148,0.0001674,53.2144,276.1111,50.5618,139.5838,-0.001639,-0.00026283,0.0,0 STARLINK-3694,1 51957U 22025B   22191.58334491 -.00026283  00000-0 -16390-2 0  9994,2 51957  53.2144 276.1111 0001674  50.5618 139.5838 15.08846148  1306,6917.861999999999,95.437,540.885,538.569,0.0
51957.0,STARLINK-3694,PAYLOAD,2022-07-10 22:00:00,15.08837713,0.0001524,53.2141,274.6135,50.3184,151.4188,-0.0016354,-0.00026219,0.0,0 STARLINK-3694,1 51957U 22025B   22191.91667824 -.00026219  00000-0 -16354-2 0  9999,2 51957  53.2141 274.6135 0001524  50.3184 151.4188 15.08837713 20357,6917.887,95.438,540.807,538.698,0.0
51957.0,STARLINK-3694,PAYLOAD,2022-07-11 14:00:01,15.0882465,0.0001684,53.2141,271.6221,48.3142,176.5946,0.0015114,0.00023838,0.0,0 STARLINK-3694,1 51957U 22025B   22192.58334491  .00023838  00000-0  15114-2 0  9999,2 51957  53.2141 271.6221 0001684  48.3142 176.5946 15.08824650  1308,6917.927,95.439,540.957,538.627,0.0
51957.0,STARLINK-3694,PAYLOAD,2022-07-11 22:00:00,15.08855661,0.0001614,53.2139,270.1243,50.7087,185.7876,-0.0040021,-0.00063448,0.0,0 STARLINK-3694,1 51957U 22025B   22192.91667824 -.00063448  00000-0 -40021-2 0  9993,2 51957  53.2139 270.1243 0001614  50.7087 185.7876 15.08855661  1301,6917.833000000001,95.437,540.814,538.581,0.0
51957.0,STARLINK-3694,PAYLOAD,2022-07-12 06:00:00,15.0882853,0.0001654,53.214,268.6276,56.9938,191.0863,0.00059677,9.219e-05,0.0,0 STARLINK-3694,1 51957U 22025B   22193.25001157  .00009219  00000-0  59677-3 0  9994,2 51957  53.2140 268.6276 0001654  56.9938 191.0863 15.08828530 20557,6917.915,95.438,540.925,538.636,0.0
51957.0,STARLINK-3694,PAYLOAD,2022-07-12 14:00:01,15.08819291,0.0001845,53.214,267.1329,49.3509,210.3253,0.0024981,0.00039671,0.0,0 STARLINK-3694,1 51957U 22025B   22193.58334491  .00039671  00000-0  24981-2 0  9994,2 51957  53.2140 267.1329 0001845  49.3509 210.3253 15.08819291  1306,6917.944,95.439,541.085,538.5319999999998,0.0
51957.0,STARLINK-3694,PAYLOAD,2022-07-12 22:00:00,15.08863653,0.0001734,53.2139,265.6351,51.2863,219.9851,-0.00082756,-0.00013443,0.0,0 STARLINK-3694,1 51957U 22025B   22193.91667824 -.00013443  00000-0 -82756-3 0  9996,2 51957  53.2139 265.6351 0001734  51.2863 219.9851 15.08863653  1304,6917.808000000001,95.436,540.873,538.474,0.0
51957.0,STARLINK-3694,PAYLOAD,2022-07-13 14:00:01,15.08831747,0.0001914,53.2139,262.6436,49.4594,245.0403,-0.00052299,-8.6e-05,0.0,0 STARLINK-3694,1 51957U 22025B   22194.58334491 -.00008600  00000-0 -52299-3 0  9999,2 51957  53.2139 262.6436 0001914  49.4594 245.0403 15.08831747  1307,6917.906,95.438,541.095,538.447,0.0
51957.0,STARLINK-3694,PAYLOAD,2022-07-13 22:00:00,15.08820014,0.0001704,53.2139,261.1458,49.1103,256.9709,-0.0023579,-0.00037598,0.0,0 STARLINK-3694,1 51957U 22025B   22194.91667824 -.00037598  00000-0 -23579-2 0  9991,2 51957  53.2139 261.1458 0001704  49.1103 256.9709 15.08820014  1300,6917.941,95.439,540.985,538.628,0.0
51957.0,STARLINK-3694,PAYLOAD,2022-07-14 14:00:01,15.08789687,0.0001857,53.2138,258.1545,46.1022,283.0927,0.0027824,0.00044211,0.0,0 STARLINK-3694,1 51957U 22025B   22195.58334491  .00044211  00000-0  27824-2 0  9991,2 51957  53.2138 258.1545 0001857  46.1022 283.0927 15.08789687 20908,6918.034000000002,95.441,541.184,538.615,0.0
51957.0,STARLINK-3694,PAYLOAD,2022-07-14 22:00:00,15.0881777,0.0001702,53.2138,256.6566,49.1059,291.645,-0.00011979,-2.193e-05,0.0,0 STARLINK-3694,1 51957U 22025B   22195.91667824 -.00002193  00000-0 -11979-3 0  9997,2 51957  53.2138 256.6566 0001702  49.1059 291.6450 15.08817770  1300,6917.948,95.439,540.991,538.636,0.0
51957.0,STARLINK-3694,PAYLOAD,2022-07-15 06:00:00,15.08836114,0.000169,53.2139,255.1602,51.7972,300.5138,-0.0006461,-0.00010555,0.0,0 STARLINK-3694,1 51957U 22025B   22196.25001157 -.00010555  00000-0 -64610-3 0  9997,2 51957  53.2139 255.1602 0001690  51.7972 300.5138 15.08836114 21000,6917.892,95.438,540.9259999999998,538.5880000000002,0.0
51957.0,STARLINK-3694,PAYLOAD,2022-07-15 14:00:01,15.088104199999998,0.0001856,53.2136,253.6652,45.9476,317.9578,0.002916,0.00046389,0.0,0 STARLINK-3694,1 51957U 22025B   22196.58334491  .00046389  00000-0  29160-2 0  9995,2 51957  53.2136 253.6652 0001856  45.9476 317.9578 15.08810420  1306,6917.971,95.439,541.12,538.552,0.0
51957.0,STARLINK-3694,PAYLOAD,2022-07-15 22:00:00,15.08834382,0.0001684,53.2135,252.1671,49.9281,325.5624,0.0005136,7.894e-05,0.0,0 STARLINK-3694,1 51957U 22025B   22196.91667824  .00007894  00000-0  51360-3 0  9997,2 51957  53.2135 252.1671 0001684  49.9281 325.5624 15.08834382  1307,6917.898,95.438,540.928,538.5980000000002,0.0
51957.0,STARLINK-3694,PAYLOAD,2022-07-16 06:00:00,15.08863655,0.0001696,53.2144,250.67,51.6013,335.4773,-0.00088666,-0.00014381,0.0,0 STARLINK-3694,1 51957U 22025B   22197.25001157 -.00014381  00000-0 -88666-3 0  9996,2 51957  53.2144 250.6700 0001696  51.6013 335.4773 15.08863655 21154,6917.808000000001,95.436,540.846,538.5,0.0
51957.0,STARLINK-3694,PAYLOAD,2022-07-16 14:00:01,15.08831692,0.0001815,53.2132,249.1756,45.4329,353.2619,0.0027509,0.00043755,0.0,0 STARLINK-3694,1 51957U 22025B   22197.58334491  .00043755  00000-0  27509-2 0  9995,2 51957  53.2132 249.1756 0001815  45.4329 353.2619 15.08831692  1307,6917.906,95.438,541.026,538.515,0.0
51957.0,STARLINK-3694,PAYLOAD,2022-07-16 22:00:00,15.08853177,0.0001599,53.2131,247.6773,49.2215,1.0913,-0.0011767,-0.00018973,0.0,0 STARLINK-3694,1 51957U 22025B   22197.91667824 -.00018973  00000-0 -11767-2 0  9996,2 51957  53.2131 247.6773 0001599  49.2215   1.0913 15.08853177  1300,6917.84,95.437,540.811,538.599,0.0
51957.0,STARLINK-3694,PAYLOAD,2022-07-17 14:00:01,15.08838648,0.0001853,53.2154,244.6849,43.6499,29.8687,-0.0017186,-0.00027535,0.0,0 STARLINK-3694,1 51957U 22025B   22198.58334491 -.00027535  00000-0 -17186-2 0  9996,2 51957  53.2154 244.6849 0001853  43.6499  29.8687 15.08838648 21350,6917.885,95.438,541.031,538.4680000000002,0.0
